[{"OBJECT_NAME":"STARLINK-1400","OBJECT_ID":"2020-035AV","EPOCH":"2026-03-09T22:42:08.377920","MEAN_MOTION":15.50591902,"ECCENTRICITY":0.00079016,"INCLINATION":53.0513,"RA_OF_ASC_NODE":21.7292,"ARG_OF_PERICENTER":96.3588,"MEAN_ANOMALY":263.832,"EPHEMERIS_TYPE":0,"CLASSIFICATION_TYPE":"U","NORAD_CAT_ID":45700,"ELEMENT_SET_NO":999,"REV_AT_EPOCH":31938,"BSTAR":0.0019068504,"MEAN_MOTION_DOT":0.00112245,"MEAN_MOTION_DDOT":0},{"OBJECT_NAME":"STARLINK-36642","OBJECT_ID":"2026-022M","EPOCH":"2026-03-09T22:00:01.999584","MEAN_MOTION":15.67111512,"ECCENTRICITY":0.00014785,"INCLINATION":97.2846,"RA_OF_ASC_NODE":102.9081,"ARG_OF_PERICENTER":66.7517,"MEAN_ANOMALY":337.0736,"EPHEMERIS_TYPE":0,"CLASSIFICATION_TYPE":"U","NORAD_CAT_ID":67659,"ELEMENT_SET_NO":999,"REV_AT_EPOCH":608,"BSTAR":-0.020317165,"MEAN_MOTION_DOT":-0.01917754,"MEAN_MOTION_DDOT":0}]
